QIANFAN-1               
1 60379U 24140A   25273.51692387  .00000090  00000+0  11964-3 0  9998
2 60379  88.9764 306.8735 0019443  69.7954 290.5286 13.50974633 57467
QIANFAN-2               
1 60380U 24140B   25273.54562345  .00000097  00000+0  13096-3 0  9998
2 60380  88.9750 306.7199 0014103  46.3275 313.9043 13.50966845 57526
QIANFAN-3               
1 60381U 24140C   25273.55390936  .00000089  00000+0  11918-3 0  9997
2 60381  88.9743 306.8571 0015553  57.0880 303.1765 13.50966894 57431
QIANFAN-4               
1 60382U 24140D   25273.52926450  .00000099  00000+0  13390-3 0  9998
2 60382  88.9768 306.7390 0014409  48.6052 311.6335 13.50973961 57556
QIANFAN-5               
1 60383U 24140E   25273.50456424  .00000097  00000+0  13207-3 0  9991
2 60383  88.9742 306.8878 0017065  66.8305 293.4642 13.50969961 57413
QIANFAN-6               
1 60384U 24140F   25273.52518885  .00000093  00000+0  12599-3 0  9993
2 60384  88.9769 306.6124 0014689  53.8528 306.3980 13.50965771 57613
QIANFAN-7               
1 60385U 24140G   25273.49790924  .00000579  00000+0  22937-3 0  9992
2 60385  88.9772 302.3411 0012550 283.4241  76.5555 14.27563580 59947
QIANFAN-8               
1 60386U 24140H   25273.53335186  .00000109  00000+0  15037-3 0  9995
2 60386  88.9771 306.8478 0018180  54.6139 305.6707 13.50969790 57466
